[{"OBJECT_NAME":"STARLINK-31581","OBJECT_ID":"2024-068V","EPOCH":"2026-03-09T22:38:35.616192","MEAN_MOTION":15.27565767,"ECCENTRICITY":0.0001373,"INCLINATION":43.0058,"RA_OF_ASC_NODE":25.9663,"ARG_OF_PERICENTER":272.1842,"MEAN_ANOMALY":87.8853,"EPHEMERIS_TYPE":0,"CLASSIFICATION_TYPE":"U","NORAD_CAT_ID":59474,"ELEMENT_SET_NO":999,"REV_AT_EPOCH":10864,"BSTAR":4.456418e-5,"MEAN_MOTION_DOT":9.64e-6,"MEAN_MOTION_DDOT":0},{"OBJECT_NAME":"OBJECT BE","OBJECT_ID":"2025-313BE","EPOCH":"2026-03-09T16:43:59.380320","MEAN_MOTION":15.29801687,"ECCENTRICITY":0.00072083,"INCLINATION":97.3989,"RA_OF_ASC_NODE":145.3568,"ARG_OF_PERICENTER":335.3714,"MEAN_ANOMALY":24.7181,"EPHEMERIS_TYPE":0,"CLASSIFICATION_TYPE":"U","NORAD_CAT_ID":67482,"ELEMENT_SET_NO":999,"REV_AT_EPOCH":797,"BSTAR":0.0026504328,"MEAN_MOTION_DOT":0.00077178,"MEAN_MOTION_DDOT":0}]
